0 SL-8 DEB
1 02934U 65020EM  13280.36821927  .00000188  00000-0  14953-2 0  6395
2 02934 055.5920 266.6314 0356575 039.8458 101.7407 12.49820776122698
0 SL-8 DEB
1 02934U 65020EM  13282.36880699  .00000135  00000-0  12198-2 0  6401
2 02934 055.5919 261.1559 0356894 042.7200 103.1063 12.49821140122947
0 SL-8 DEB
1 02934U 65020EM  13287.32847303  .00000120  00000-0  11390-2 0  6426
2 02934 055.5920 247.5813 0357602 049.8370 098.4618 12.49822608123565
0 SL-8 DEB
1 02934U 65020EM  13290.03111839  .00000127  00000-0  11787-2 0  6434
2 02934 055.5924 240.1841 0358113 053.7194 018.6653 12.49824121123908
0 SL-8 DEB
1 02934U 65020EM  13292.19971317  .00000155  00000-0  13204-2 0  6446
2 02934 055.5922 234.2486 0358412 056.8406 055.9758 12.49825540124173
0 SL-8 DEB
1 02934U 65020EM  13294.28924645  .00000150  00000-0  12962-2 0  6456
2 02934 055.5921 228.5297 0358676 059.8429 097.5755 12.49826645124433
